{
  "type": "FeatureCollection",
  "features": [
    {
      "type": "Feature",
      "properties": {
        "norad_id": 66835,
        "name": "STARLINK-35890",
        "group": "last-30-days",
        "lat": 35.05268189418033,
        "lon": -179.8129720414388,
        "alt_km": 407.44235240869966,
        "timestamp": "2025-12-24T18:55:54.776847+00:00",
        "meta_object_name": "STARLINK-35890",
        "meta_object_id": "2025-280Q",
        "meta_epoch": "2025-12-24T04:51:14.563296",
        "meta_mean_motion": 15.52581406,
        "meta_eccentricity": 0.00033457,
        "meta_inclination": 70.0005,
        "meta_ra_of_asc_node": 166.9882,
        "meta_arg_of_pericenter": 271.7807,
        "meta_mean_anomaly": 88.2997,
        "meta_ephemeris_type": 0,
        "meta_classification_type": "U",
        "meta_norad_cat_id": 66835,
        "meta_element_set_no": 999,
        "meta_rev_at_epoch": 471,
        "meta_bstar": 0.0011308848,
        "meta_mean_motion_dot": 0.0007018,
        "meta_mean_motion_ddot": 0,
        "tle_line1": "1 66835U 25280Q   25358.20225189  .00070180  00000+0  11309-2 0  9998",
        "tle_line2": "2 66835  70.0005 166.9882 0003345 271.7807  88.2997 15.52581406  4711"
      },
      "geometry": {
        "type": "Point",
        "coordinates": [
          -179.8129720414388,
          35.05268189418033
        ]
      }
    },
    {
      "type": "Feature",
      "properties": {
        "norad_id": 66836,
        "name": "STARLINK-35838",
        "group": "last-30-days",
        "lat": 36.795469964629866,
        "lon": -178.81241024407183,
        "alt_km": 407.0805286193645,
        "timestamp": "2025-12-24T18:55:54.776857+00:00",
        "meta_object_name": "STARLINK-35838",
        "meta_object_id": "2025-280R",
        "meta_epoch": "2025-12-24T04:50:45.219264",
        "meta_mean_motion": 15.52564271,
        "meta_eccentricity": 0.00033698,
        "meta_inclination": 70.0007,
        "meta_ra_of_asc_node": 166.9861,
        "meta_arg_of_pericenter": 273.2556,
        "meta_mean_anomaly": 86.8245,
        "meta_ephemeris_type": 0,
        "meta_classification_type": "U",
        "meta_norad_cat_id": 66836,
        "meta_element_set_no": 999,
        "meta_rev_at_epoch": 471,
        "meta_bstar": 0.0019002602,
        "meta_mean_motion_dot": 0.00118693,
        "meta_mean_motion_ddot": 0,
        "tle_line1": "1 66836U 25280R   25358.20191226  .00118693  00000+0  19003-2 0  9994",
        "tle_line2": "2 66836  70.0007 166.9861 0003369 273.2556  86.8245 15.52564271  4716"
      },
      "geometry": {
        "type": "Point",
        "coordinates": [
          -178.81241024407183,
          36.795469964629866
        ]
      }
    },
    {
      "type": "Feature",
      "properties": {
        "norad_id": 66837,
        "name": "STARLINK-35729",
        "group": "last-30-days",
        "lat": 38.439043613702744,
        "lon": -177.82036189696709,
        "alt_km": 407.1179630172728,
        "timestamp": "2025-12-24T18:55:54.776867+00:00",
        "meta_object_name": "STARLINK-35729",
        "meta_object_id": "2025-280S",
        "meta_epoch": "2025-12-24T04:50:15.530496",
        "meta_mean_motion": 15.52543328,
        "meta_eccentricity": 0.00033291,
        "meta_inclination": 70.0008,
        "meta_ra_of_asc_node": 166.9848,
        "meta_arg_of_pericenter": 271.5971,
        "meta_mean_anomaly": 88.4835,
        "meta_ephemeris_type": 0,
        "meta_classification_type": "U",
        "meta_norad_cat_id": 66837,
        "meta_element_set_no": 999,
        "meta_rev_at_epoch": 471,
        "meta_bstar": 0.001190182,
        "meta_mean_motion_dot": 0.00073801,
        "meta_mean_motion_ddot": 0,
        "tle_line1": "1 66837U 25280S   25358.20156864  .00073801  00000+0  11902-2 0  9995",
        "tle_line2": "2 66837  70.0008 166.9848 0003329 271.5971  88.4835 15.52543328  4714"
      },
      "geometry": {
        "type": "Point",
        "coordinates": [
          -177.82036189696709,
          38.439043613702744
        ]
      }
    },
    {
      "type": "Feature",
      "properties": {
        "norad_id": 66838,
        "name": "STARLINK-35886",
        "group": "last-30-days",
        "lat": 41.935370564886284,
        "lon": -175.52881879392226,
        "alt_km": 406.5119848576833,
        "timestamp": "2025-12-24T18:55:54.776877+00:00",
        "meta_object_name": "STARLINK-35886",
        "meta_object_id": "2025-280T",
        "meta_epoch": "2025-12-24T04:49:16.776768",
        "meta_mean_motion": 15.52563123,
        "meta_eccentricity": 0.00034087,
        "meta_inclination": 70.001,
        "meta_ra_of_asc_node": 166.9825,
        "meta_arg_of_pericenter": 270.8549,
        "meta_mean_anomaly": 89.2248,
        "meta_ephemeris_type": 0,
        "meta_classification_type": "U",
        "meta_norad_cat_id": 66838,
        "meta_element_set_no": 999,
        "meta_rev_at_epoch": 471,
        "meta_bstar": 0.0020499492,
        "meta_mean_motion_dot": 0.00128205,
        "meta_mean_motion_ddot": 0,
        "tle_line1": "1 66838U 25280T   25358.20088862  .00128205  00000+0  20499-2 0  9998",
        "tle_line2": "2 66838  70.0010 166.9825 0003408 270.8549  89.2248 15.52563123  4716"
      },
      "geometry": {
        "type": "Point",
        "coordinates": [
          -175.52881879392226,
          41.935370564886284
        ]
      }
    },
    {
      "type": "Feature",
      "properties": {
        "norad_id": 66839,
        "name": "STARLINK-35717",
        "group": "last-30-days",
        "lat": 40.15293958604153,
        "lon": -176.73135681256832,
        "alt_km": 406.83658314650984,
        "timestamp": "2025-12-24T18:55:54.776887+00:00",
        "meta_object_name": "STARLINK-35717",
        "meta_object_id": "2025-280U",
        "meta_epoch": "2025-12-24T04:49:45.892704",
        "meta_mean_motion": 15.52541972,
        "meta_eccentricity": 0.00033672,
        "meta_inclination": 70.0008,
        "meta_ra_of_asc_node": 166.9825,
        "meta_arg_of_pericenter": 275.1827,
        "meta_mean_anomaly": 84.8975,
        "meta_ephemeris_type": 0,
        "meta_classification_type": "U",
        "meta_norad_cat_id": 66839,
        "meta_element_set_no": 999,
        "meta_rev_at_epoch": 471,
        "meta_bstar": 0.0011079985,
        "meta_mean_motion_dot": 0.00068646,
        "meta_mean_motion_ddot": 0,
        "tle_line1": "1 66839U 25280U   25358.20122561  .00068646  00000+0  11080-2 0  9992",
        "tle_line2": "2 66839  70.0008 166.9825 0003367 275.1827  84.8975 15.52541972  4711"
      },
      "geometry": {
        "type": "Point",
        "coordinates": [
          -176.73135681256832,
          40.15293958604153
        ]
      }
    },
    {
      "type": "Feature",
      "properties": {
        "norad_id": 66840,
        "name": "STARLINK-35837",
        "group": "last-30-days",
        "lat": 43.641711982093824,
        "lon": -174.304855431093,
        "alt_km": 406.42351972002507,
        "timestamp": "2025-12-24T18:55:54.776897+00:00",
        "meta_object_name": "STARLINK-35837",
        "meta_object_id": "2025-280V",
        "meta_epoch": "2025-12-24T04:48:45.669312",
        "meta_mean_motion": 15.52526403,
        "meta_eccentricity": 0.00032619,
        "meta_inclination": 70.0006,
        "meta_ra_of_asc_node": 166.9808,
        "meta_arg_of_pericenter": 268.2176,
        "meta_mean_anomaly": 91.8638,
        "meta_ephemeris_type": 0,
        "meta_classification_type": "U",
        "meta_norad_cat_id": 66840,
        "meta_element_set_no": 999,
        "meta_rev_at_epoch": 471,
        "meta_bstar": 0.0019708285,
        "meta_mean_motion_dot": 0.00123005,
        "meta_mean_motion_ddot": 0,
        "tle_line1": "1 66840U 25280V   25358.20052858  .00123005  00000+0  19708-2 0  9991",
        "tle_line2": "2 66840  70.0006 166.9808 0003261 268.2176  91.8638 15.52526403  4711"
      },
      "geometry": {
        "type": "Point",
        "coordinates": [
          -174.304855431093,
          43.641711982093824
        ]
      }
    },
    {
      "type": "Feature",
      "properties": {
        "norad_id": 66841,
        "name": "STARLINK-35715",
        "group": "last-30-days",
        "lat": 45.357052873013075,
        "lon": -172.9913859537461,
        "alt_km": 405.888336771166,
        "timestamp": "2025-12-24T18:55:54.776907+00:00",
        "meta_object_name": "STARLINK-35715",
        "meta_object_id": "2025-280W",
        "meta_epoch": "2025-12-24T04:48:17.214336",
        "meta_mean_motion": 15.52591873,
        "meta_eccentricity": 0.00033022,
        "meta_inclination": 70.0006,
        "meta_ra_of_asc_node": 166.9796,
        "meta_arg_of_pericenter": 277.2327,
        "meta_mean_anomaly": 82.8484,
        "meta_ephemeris_type": 0,
        "meta_classification_type": "U",
        "meta_norad_cat_id": 66841,
        "meta_element_set_no": 999,
        "meta_rev_at_epoch": 471,
        "meta_bstar": 0.0015764786,
        "meta_mean_motion_dot": 0.00098283,
        "meta_mean_motion_ddot": 0,
        "tle_line1": "1 66841U 25280W   25358.20019924  .00098283  00000+0  15765-2 0  9997",
        "tle_line2": "2 66841  70.0006 166.9796 0003302 277.2327  82.8484 15.52591873  4714"
      },
      "geometry": {
        "type": "Point",
        "coordinates": [
          -172.9913859537461,
          45.357052873013075
        ]
      }
    }
  ]
}